{"type": "FeatureCollection", "features": [ {"type": "Feature", "properties": {"norad_id": 66426, "name": "STARLINK-35589", "group": "last-30-days", "lat": 16.151812316382625, "lon": 97.81578721479752, "alt_km": 441.5373339646685, "timestamp": "2025-12-07T05:38:08.683547+00:00", "meta": {"OBJECT_NAME": "STARLINK-35589", "OBJECT_ID": "2025-259E", "EPOCH": "2025-12-06T14:00:01.999872", "MEAN_MOTION": 15.4061884, "ECCENTRICITY": 0.00013117, "INCLINATION": 43.0005, "RA_OF_ASC_NODE": 83.4639, "ARG_OF_PERICENTER": 277.1515, "MEAN_ANOMALY": 89.3657, "EPHEMERIS_TYPE": 0, "CLASSIFICATION_TYPE": "U", "NORAD_CAT_ID": 66426, "ELEMENT_SET_NO": 999, "REV_AT_EPOCH": 529, "BSTAR": 0.0023913073, "MEAN_MOTION_DOT": 0.00100642, "MEAN_MOTION_DDOT": 0}, "tle": {"line1": "1 66426U 25259E   25340.58335648  .00100642  00000+0  23913-2 0  9995", "line2": "2 66426  43.0005  83.4639 0001311 277.1515  89.3657 15.40618840  5296"}}, "geometry": {"type": "Point", "coordinates": [97.81578721479752, 16.151812316382625]}}, {"type": "Feature", "properties": {"norad_id": 66427, "name": "STARLINK-35611", "group": "last-30-days", "lat": 23.87505283308682, "lon": 108.03657844348506, "alt_km": 440.1693053337667, "timestamp": "2025-12-07T05:38:08.683558+00:00", "meta": {"OBJECT_NAME": "STARLINK-35611", "OBJECT_ID": "2025-259F", "EPOCH": "2025-12-06T14:00:01.999872", "MEAN_MOTION": 15.40581762, "ECCENTRICITY": 0.0002004, "INCLINATION": 43.0004, "RA_OF_ASC_NODE": 83.4332, "ARG_OF_PERICENTER": 306.0138, "MEAN_ANOMALY": 72.9203, "EPHEMERIS_TYPE": 0, "CLASSIFICATION_TYPE": "U", "NORAD_CAT_ID": 66427, "ELEMENT_SET_NO": 999, "REV_AT_EPOCH": 529, "BSTAR": 0.0022234866, "MEAN_MOTION_DOT": 0.00093355, "MEAN_MOTION_DDOT": 0}, "tle": {"line1": "1 66427U 25259F   25340.58335648  .00093355  00000+0  22235-2 0  9994", "line2": "2 66427  43.0004  83.4332 0002004 306.0138  72.9203 15.40581762  5296"}}, "geometry": {"type": "Point", "coordinates": [108.03657844348506, 23.87505283308682]}}, {"type": "Feature", "properties": {"norad_id": 66428, "name": "STARLINK-35610", "group": "last-30-days", "lat": 30.74501011190291, "lon": 119.31441884897792, "alt_km": 442.34663324371104, "timestamp": "2025-12-07T05:38:08.683568+00:00", "meta": {"OBJECT_NAME": "STARLINK-35610", "OBJECT_ID": "2025-259G", "EPOCH": "2025-12-06T14:00:01.999872", "MEAN_MOTION": 15.41333146, "ECCENTRICITY": 0.00018948, "INCLINATION": 43.0005, "RA_OF_ASC_NODE": 83.4034, "ARG_OF_PERICENTER": 265.9792, "MEAN_ANOMALY": 125.0797, "EPHEMERIS_TYPE": 0, "CLASSIFICATION_TYPE": "U", "NORAD_CAT_ID": 66428, "ELEMENT_SET_NO": 999, "REV_AT_EPOCH": 529, "BSTAR": -0.024797874, "MEAN_MOTION_DOT": -0.00966725, "MEAN_MOTION_DDOT": 0}, "tle": {"line1": "1 66428U 25259G   25340.58335648 -.00966725  00000+0 -24798-1 0  9992", "line2": "2 66428  43.0005  83.4034 0001894 265.9792 125.0797 15.41333146  5292"}}, "geometry": {"type": "Point", "coordinates": [119.31441884897792, 30.74501011190291]}}, {"type": "Feature", "properties": {"norad_id": 66429, "name": "STARLINK-35533", "group": "last-30-days", "lat": 36.72200511565861, "lon": 132.79621772646638, "alt_km": 441.05416991765105, "timestamp": "2025-12-07T05:38:08.683578+00:00", "meta": {"OBJECT_NAME": "STARLINK-35533", "OBJECT_ID": "2025-259H", "EPOCH": "2025-12-06T14:00:01.999872", "MEAN_MOTION": 15.43255721, "ECCENTRICITY": 0.00011822, "INCLINATION": 43.0007, "RA_OF_ASC_NODE": 83.3772, "ARG_OF_PERICENTER": 287.0124, "MEAN_ANOMALY": 114.5826, "EPHEMERIS_TYPE": 0, "CLASSIFICATION_TYPE": "U", "NORAD_CAT_ID": 66429, "ELEMENT_SET_NO": 999, "REV_AT_EPOCH": 529, "BSTAR": -0.058976296, "MEAN_MOTION_DOT": -0.02387464, "MEAN_MOTION_DDOT": 0}, "tle": {"line1": "1 66429U 25259H   25340.58335648 -.02387464  00000+0 -58976-1 0  9997", "line2": "2 66429  43.0007  83.3772 0001182 287.0124 114.5826 15.43255721  5297"}}, "geometry": {"type": "Point", "coordinates": [132.79621772646638, 36.72200511565861]}}, {"type": "Feature", "properties": {"norad_id": 66430, "name": "STARLINK-35470", "group": "last-30-days", "lat": 40.87926179541581, "lon": 147.84655863169004, "alt_km": 436.22244671174485, "timestamp": "2025-12-07T05:38:08.683590+00:00", "meta": {"OBJECT_NAME": "STARLINK-35470", "OBJECT_ID": "2025-259J", "EPOCH": "2025-12-06T14:00:01.999872", "MEAN_MOTION": 15.44348002, "ECCENTRICITY": 0.00014285, "INCLINATION": 43.0009, "RA_OF_ASC_NODE": 83.3551, "ARG_OF_PERICENTER": 283.7154, "MEAN_ANOMALY": 127.1977, "EPHEMERIS_TYPE": 0, "CLASSIFICATION_TYPE": "U", "NORAD_CAT_ID": 66430, "ELEMENT_SET_NO": 999, "REV_AT_EPOCH": 529, "BSTAR": -0.04874752, "MEAN_MOTION_DOT": -0.02046589, "MEAN_MOTION_DDOT": 0}, "tle": {"line1": "1 66430U 25259J   25340.58335648 -.02046589  00000+0 -48748-1 0  9995", "line2": "2 66430  43.0009  83.3551 0001428 283.7154 127.1977 15.44348002  5298"}}, "geometry": {"type": "Point", "coordinates": [147.84655863169004, 40.87926179541581]}}, {"type": "Feature", "properties": {"norad_id": 66431, "name": "STARLINK-35439", "group": "last-30-days", "lat": 42.31502355369169, "lon": -178.16333175758942, "alt_km": 418.9854414940637, "timestamp": "2025-12-07T05:38:08.683600+00:00", "meta": {"OBJECT_NAME": "STARLINK-35439", "OBJECT_ID": "2025-259K", "EPOCH": "2025-12-06T13:43:13.793952", "MEAN_MOTION": 15.47886848, "ECCENTRICITY": 0.00016368, "INCLINATION": 43.0003, "RA_OF_ASC_NODE": 83.3817, "ARG_OF_PERICENTER": 275.1836, "MEAN_ANOMALY": 84.8836, "EPHEMERIS_TYPE": 0, "CLASSIFICATION_TYPE": "U", "NORAD_CAT_ID": 66431, "ELEMENT_SET_NO": 999, "REV_AT_EPOCH": 521, "BSTAR": -0.008003332, "MEAN_MOTION_DOT": -0.00405794, "MEAN_MOTION_DDOT": 0}, "tle": {"line1": "1 66431U 25259K   25340.57168743 -.00405794  00000+0 -80033-2 0  9994", "line2": "2 66431  43.0003  83.3817 0001636 275.1836  84.8836 15.47886848  5214"}}, "geometry": {"type": "Point", "coordinates": [-178.16333175758942, 42.31502355369169]}}, {"type": "Feature", "properties": {"norad_id": 66432, "name": "STARLINK-35446", "group": "last-30-days", "lat": 39.210838988849005, "lon": -161.61887397752602, "alt_km": 412.8232550082621, "timestamp": "2025-12-07T05:38:08.683611+00:00", "meta": {"OBJECT_NAME": "STARLINK-35446", "OBJECT_ID": "2025-259L", "EPOCH": "2025-12-06T13:41:56.910048", "MEAN_MOTION": 15.50893835, "ECCENTRICITY": 0.00144162, "INCLINATION": 43.001, "RA_OF_ASC_NODE": 83.3771, "ARG_OF_PERICENTER": 233.1214, "MEAN_ANOMALY": 126.8325, "EPHEMERIS_TYPE": 0, "CLASSIFICATION_TYPE": "U", "NORAD_CAT_ID": 66432, "ELEMENT_SET_NO": 999, "REV_AT_EPOCH": 521, "BSTAR": 0.0030811086, "MEAN_MOTION_DOT": 0.00187576, "MEAN_MOTION_DDOT": 0}, "tle": {"line1": "1 66432U 25259L   25340.57079757  .00187576  00000+0  30811-2 0  9993", "line2": "2 66432  43.0010  83.3771 0014416 233.1214 126.8325 15.50893835  5214"}}, "geometry": {"type": "Point", "coordinates": [-161.61887397752602, 39.210838988849005]}}, {"type": "Feature", "properties": {"norad_id": 66433, "name": "STARLINK-35457", "group": "last-30-days", "lat": 38.31596562019592, "lon": -158.51238413591986, "alt_km": 408.3753040596066, "timestamp": "2025-12-07T05:38:08.683621+00:00", "meta": {"OBJECT_NAME": "STARLINK-35457", "OBJECT_ID": "2025-259M", "EPOCH": "2025-12-05T14:30:06.205536", "MEAN_MOTION": 15.50628115, "ECCENTRICITY": 0.00014015, "INCLINATION": 43.0005, "RA_OF_ASC_NODE": 89.0241, "ARG_OF_PERICENTER": 255.623, "MEAN_ANOMALY": 104.4475, "EPHEMERIS_TYPE": 0, "CLASSIFICATION_TYPE": "U", "NORAD_CAT_ID": 66433, "ELEMENT_SET_NO": 999, "REV_AT_EPOCH": 506, "BSTAR": 0.0021532261, "MEAN_MOTION_DOT": 0.00128293, "MEAN_MOTION_DDOT": 0}, "tle": {"line1": "1 66433U 25259M   25339.60423849  .00128293  00000+0  21532-2 0  9992", "line2": "2 66433  43.0005  89.0241 0001401 255.6230 104.4475 15.50628115  5069"}}, "geometry": {"type": "Point", "coordinates": [-158.51238413591986, 38.31596562019592]}}, {"type": "Feature", "properties": {"norad_id": 66434, "name": "STARLINK-35389", "group": "last-30-days", "lat": 36.6260831391236, "lon": -153.44004017606224, "alt_km": 407.2251295647384, "timestamp": "2025-12-07T05:38:08.683631+00:00", "meta": {"OBJECT_NAME": "STARLINK-35389", "OBJECT_ID": "2025-259N", "EPOCH": "2025-12-06T13:40:28.629120", "MEAN_MOTION": 15.51322221, "ECCENTRICITY": 0.00037232, "INCLINATION": 43.0006, "RA_OF_ASC_NODE": 83.3692, "ARG_OF_PERICENTER": 226.3618, "MEAN_ANOMALY": 133.6934, "EPHEMERIS_TYPE": 0, "CLASSIFICATION_TYPE": "U", "NORAD_CAT_ID": 66434, "ELEMENT_SET_NO": 999, "REV_AT_EPOCH": 521, "BSTAR": 0.0031867247, "MEAN_MOTION_DOT": 0.00196544, "MEAN_MOTION_DDOT": 0}, "tle": {"line1": "1 66434U 25259N   25340.56977580  .00196544  00000+0  31867-2 0  9992", "line2": "2 66434  43.0006  83.3692 0003723 226.3618 133.6934 15.51322221  5213"}}, "geometry": {"type": "Point", "coordinates": [-153.44004017606224, 36.6260831391236]}}, {"type": "Feature", "properties": {"norad_id": 66435, "name": "STARLINK-35502", "group": "last-30-days", "lat": 39.59946477723997, "lon": -163.09987297510446, "alt_km": 403.77482737992887, "timestamp": "2025-12-07T05:38:08.683641+00:00", "meta": {"OBJECT_NAME": "STARLINK-35502", "OBJECT_ID": "2025-259P", "EPOCH": "2025-12-06T07:29:56.270976", "MEAN_MOTION": 15.49134217, "ECCENTRICITY": 0.00125767, "INCLINATION": 43.0002, "RA_OF_ASC_NODE": 84.8779, "ARG_OF_PERICENTER": 98.8044, "MEAN_ANOMALY": 261.424, "EPHEMERIS_TYPE": 0, "CLASSIFICATION_TYPE": "U", "NORAD_CAT_ID": 66435, "ELEMENT_SET_NO": 999, "REV_AT_EPOCH": 517, "BSTAR": 0.002434079, "MEAN_MOTION_DOT": 0.00138142, "MEAN_MOTION_DDOT": 0}, "tle": {"line1": "1 66435U 25259P   25340.31245684  .00138142  00000+0  24341-2 0  9998", "line2": "2 66435  43.0002  84.8779 0012576  98.8044 261.4240 15.49134217  5171"}}, "geometry": {"type": "Point", "coordinates": [-163.09987297510446, 39.59946477723997]}}]}